[
    {
        "Altitude(m)": 610399.5006743559,
        "Argument of Periapsis(deg)": 0.0,
        "Eccentricity": 0.0,
        "Inclination(deg)": 60.0,
        "Latitude(deg)": 52.11125724689592,
        "Longitude(deg)": -82.41571052379464,
        "Mean Anomaly(deg)": -294.5455,
        "RAAN(deg)": 330.0,
        "Satellite Name": "Test1 1456",
        "Satellite Number": 1456,
        "Semi-Major Axis(m)": 6980739.136638005,
        "Time(s)": 0
    },
    {
        "Altitude(m)": 610481.6519173168,
        "Argument of Periapsis(deg)": 0.00010418945913296404,
        "Eccentricity": 0.0,
        "Inclination(deg)": 60.0,
        "Latitude(deg)": 52.470859688086435,
        "Longitude(deg)": -81.63357589010143,
        "Mean Anomaly(deg)": -293.9253938545382,
        "RAAN(deg)": 329.9995799508602,
        "Satellite Name": "Test1 1456",
        "Satellite Number": 1456,
        "Semi-Major Axis(m)": 6980739.136638005,
        "Time(s)": 10
    }
]